NORAD_CAT_ID,OBJECT_NAME,OBJECT_TYPE,EPOCH,MEAN_MOTION,ECCENTRICITY,INCLINATION,RA_OF_ASC_NODE,ARG_OF_PERICENTER,MEAN_ANOMALY,BSTAR,MEAN_MOTION_DOT,MEAN_MOTION_DDOT,TLE_LINE0,TLE_LINE1,TLE_LINE2,SEMIMAJOR_AXIS,PERIOD,APOGEE,PERIGEE,DECAYED
55293.0,STARLINK-5287,PAYLOAD,2023-04-25 13:57:35,15.69894323,0.0002782,69.9987,158.8691,272.3845,87.7032,-2.9446e-05,-3.747e-05,0.0,0 STARLINK-5287,1 55293U 23010AA  23115.58166567 -.00003747  00000-0 -29446-4 0  9998,2 55293  69.9987 158.8691 0002782 272.3845  87.7032 15.69894323 15892,6737.336,91.726,361.076,357.327,0.0
55293.0,STARLINK-5287,PAYLOAD,2023-04-25 15:29:20,15.69900222,0.0003337,69.9985,158.6907,265.3389,94.7425,-2.3936e-05,-3.087e-05,0.0,0 STARLINK-5287,1 55293U 23010AA  23115.64537492 -.00003087  00000-0 -23936-4 0  9999,2 55293  69.9985 158.6907 0003337 265.3389  94.7425 15.69900222 15597,6737.319,91.726,361.433,356.936,0.0
55293.0,STARLINK-5287,PAYLOAD,2023-04-26 11:22:03,15.69941965,0.0001469,69.9985,156.3648,295.9459,64.1585,4.2083e-05,4.854e-05,0.0,0 STARLINK-5287,1 55293U 23010AA  23116.47365683  .00004854  00000-0  42083-4 0  9997,2 55293  69.9985 156.3648 0001469 295.9459  64.1585 15.69941965 16032,6737.2,91.723,360.055,358.075,0.0
55293.0,STARLINK-5287,PAYLOAD,2023-04-26 14:25:32,15.69954563,0.0002911,69.9997,156.0052,271.7608,88.3254,5.513e-05,6.429e-05,0.0,0 STARLINK-5287,1 55293U 23010AA  23116.60107299  .00006429  00000-0  55130-4 0  9996,2 55293  69.9997 156.0052 0002911 271.7608  88.3254 15.69954563 16053,6737.164,91.722,360.99,357.068,0.0
55293.0,STARLINK-5287,PAYLOAD,2023-04-27 04:11:20,15.69918239,0.0002704,69.9991,154.3922,261.9683,98.1206,4.6037e-05,5.325e-05,0.0,0 STARLINK-5287,1 55293U 23010AA  23117.17454845  .00005325  00000-0  46037-4 0  9991,2 55293  69.9991 154.3922 0002704 261.9683  98.1206 15.69918239 15839,6737.268,91.725,360.955,357.311,0.0
55293.0,STARLINK-5287,PAYLOAD,2023-04-27 10:18:21,15.69921251,0.000329,69.9972,153.6756,259.6195,100.463,3.8666e-05,4.438e-05,0.0,0 STARLINK-5287,1 55293U 23010AA  23117.42941494  .00004438  00000-0  38666-4 0  9993,2 55293  69.9972 153.6756 0003290 259.6195 100.4630 15.69921251 16183,6737.259,91.724,361.341,356.908,0.0
55293.0,STARLINK-5287,PAYLOAD,2023-04-28 04:39:23,15.69936691,0.0002884,69.9963,151.5251,248.9006,111.1882,-2.667e-05,-3.419e-05,0.0,0 STARLINK-5287,1 55293U 23010AA  23118.19402213 -.00003419  00000-0 -26670-4 0  9991,2 55293  69.9963 151.5251 0002884 248.9006 111.1882 15.69936691 15990,6737.215,91.723,361.023,357.137,0.0
55293.0,STARLINK-5287,PAYLOAD,2023-04-28 12:18:08,15.69934704,0.0002832,69.9968,150.6296,251.4484,108.6404,-2.5519e-05,-3.281e-05,0.0,0 STARLINK-5287,1 55293U 23010AA  23118.51260396 -.00003281  00000-0 -25519-4 0  9999,2 55293  69.9968 150.6296 0002832 251.4484 108.6404 15.69934704 16351,6737.221,91.724,360.994,357.178,0.0
55293.0,STARLINK-5287,PAYLOAD,2023-04-29 11:14:25,15.69928476,0.0003055,69.997,147.9424,254.4168,105.6691,2.2377e-06,5.6e-07,0.0,0 STARLINK-5287,1 55293U 23010AA  23119.46834555  .00000056  00000-0  22377-5 0  9993,2 55293  69.9970 147.9424 0003055 254.4168 105.6691 15.69928476 16507,6737.239,91.724,361.162,357.045,0.0
55293.0,STARLINK-5287,PAYLOAD,2023-04-30 11:42:27,15.69920684,0.000315,69.9963,145.0736,265.8514,94.2322,2.8785e-06,1.33e-06,0.0,0 STARLINK-5287,1 55293U 23010AA  23120.48781835  .00000133  00000-0  28785-5 0  9994,2 55293  69.9963 145.0736 0003150 265.8514  94.2322 15.69920684 16665,6737.261,91.724,361.248,357.004,0.0
55293.0,STARLINK-5287,PAYLOAD,2023-04-30 13:14:12,15.69915338,0.0003401,69.9961,144.8934,277.5362,82.5448,1.0563e-05,1.057e-05,0.0,0 STARLINK-5287,1 55293U 23010AA  23120.55153652  .00001057  00000-0  10563-4 0  9992,2 55293  69.9961 144.8934 0003401 277.5362  82.5448 15.69915338 16366,6737.276,91.725,361.433,356.85,0.0
55293.0,STARLINK-5287,PAYLOAD,2023-05-01 04:31:44,15.6988711,0.0003209,69.9963,143.1009,278.8216,81.2616,5.5757e-05,6.486e-05,0.0,0 STARLINK-5287,1 55293U 23010AA  23121.18870809  .00006486  00000-0  55757-4 0  9997,2 55293  69.9963 143.1009 0003209 278.8216  81.2616 15.69887110 16461,6737.357,91.726,361.384,357.06,0.0
55293.0,STARLINK-5287,PAYLOAD,2023-05-01 12:10:29,15.69927255,0.0003296,69.9965,142.2101,269.3425,90.7393,-2.9029e-06,-5.62e-06,0.0,0 STARLINK-5287,1 55293U 23010AA  23121.50728422 -.00000562  00000-0 -29029-5 0  9991,2 55293  69.9965 142.2101 0003296 269.3425  90.7393 15.69927255 16517,6737.242,91.724,361.328,356.887,0.0
55293.0,STARLINK-5287,PAYLOAD,2023-05-02 12:38:32,15.69909009,0.0002802,69.9983,139.3413,279.26,80.8279,-8.4545e-06,-1.228e-05,0.0,0 STARLINK-5287,1 55293U 23010AA  23122.52676456 -.00001228  00000-0 -84545-5 0  9997,2 55293  69.9983 139.3413 0002802 279.2600  80.8279 15.69909009 16674,6737.294,91.725,361.047,357.272,0.0
55293.0,STARLINK-5287,PAYLOAD,2023-05-03 03:56:03,15.69916467,0.0003411,69.9966,137.5507,260.6765,99.4045,-2.2696e-06,-4.86e-06,0.0,0 STARLINK-5287,1 55293U 23010AA  23123.16392551 -.00000486  00000-0 -22696-5 0  9993,2 55293  69.9966 137.5507 0003411 260.6765  99.4045 15.69916467 16776,6737.273,91.725,361.436,356.84,0.0
55293.0,STARLINK-5287,PAYLOAD,2023-05-03 11:34:48,15.69921493,0.0003067,69.9974,136.656,255.9998,104.0857,4.8193e-06,3.67e-06,0.0,0 STARLINK-5287,1 55293U 23010AA  23123.48250536  .00000367  00000-0  48193-5 0  9990,2 55293  69.9974 136.6560 0003067 255.9998 104.0857 15.69921493 17136,6737.259,91.724,361.19,357.057,0.0
55293.0,STARLINK-5287,PAYLOAD,2023-05-04 02:52:19,15.69926166,0.0003134,69.9975,134.8644,258.0426,102.0418,1.3507e-05,1.412e-05,0.0,0 STARLINK-5287,1 55293U 23010AA  23124.11966604  .00001412  00000-0  13507-4 0  9993,2 55293  69.9975 134.8644 0003134 258.0426 102.0418 15.69926166 16924,6737.245,91.724,361.222,356.999,0.0
55293.0,STARLINK-5287,PAYLOAD,2023-05-04 10:31:05,15.69917619,0.0002852,69.9977,133.9684,261.4164,98.6709,-2.9439e-07,-2.48e-06,0.0,0 STARLINK-5287,1 55293U 23010AA  23124.43825835 -.00000248  00000-0 -29439-6 0  9999,2 55293  69.9977 133.9684 0002852 261.4164  98.6709 15.69917619 16974,6737.27,91.725,361.056,357.213,0.0
55293.0,STARLINK-5287,PAYLOAD,2023-05-05 09:27:22,15.69920544,0.0003327,69.9982,131.281,260.7905,99.2914,6.2221e-06,5.35e-06,0.0,0 STARLINK-5287,1 55293U 23010AA  23125.39400680  .00000535  00000-0  62221-5 0  9994,2 55293  69.9982 131.2810 0003327 260.7905  99.2914 15.69920544 17433,6737.261,91.724,361.368,356.885,0.0
55293.0,STARLINK-5287,PAYLOAD,2023-05-06 00:44:53,15.69928442,0.000336,69.9988,129.4919,266.4063,93.6748,-1.5933e-06,-4.04e-06,0.0,0 STARLINK-5287,1 55293U 23010AA  23126.03117100 -.00000404  00000-0 -15933-5 0  9993,2 55293  69.9988 129.4919 0003360 266.4063  93.6748 15.69928442 17228,6737.239,91.724,361.367,356.84,0.0
55293.0,STARLINK-5287,PAYLOAD,2023-05-06 06:51:53,15.69931369,0.0003256,69.9987,128.7753,262.9732,97.1093,2.8601e-06,1.31e-06,0.0,0 STARLINK-5287,1 55293U 23010AA  23126.28603478  .00000131  00000-0  28601-5 0  9999,2 55293  69.9987 128.7753 0003256 262.9732  97.1093 15.69931369 17575,6737.23,91.724,361.289,356.902,0.0
55293.0,STARLINK-5287,PAYLOAD,2023-05-07 02:44:44,15.69876001,0.0003872,69.9983,126.4454,264.1547,95.9207,-4.4009e-05,-5.491e-05,0.0,0 STARLINK-5287,1 55293U 23010AA  23127.11440028 -.00005491  00000-0 -44009-4 0  9997,2 55293  69.9983 126.4454 0003872 264.1547  95.9207 15.69876001 17390,6737.389,91.727,361.862,356.645,0.0
55293.0,STARLINK-5287,PAYLOAD,2023-05-07 08:52:08,15.69579472,0.0004223,69.9992,125.7318,264.8904,95.181,-0.0003712,-0.00043994,0.0,0 STARLINK-5287,1 55293U 23010AA  23127.36954431 -.00043994  00000-0 -37120-3 0  9997,2 55293  69.9992 125.7318 0004223 264.8904  95.1810 15.69579472 17435,6738.237,91.744,362.948,357.257,0.0
55293.0,STARLINK-5287,PAYLOAD,2023-05-08 03:15:22,15.67968377,0.0003275,69.9974,123.5868,330.4996,29.6013,-0.0021572,-0.00233033,0.0,0 STARLINK-5287,1 55293U 23010AA  23128.13567264 -.00233033  00000-0 -21572-2 0  9995,2 55293  69.9974 123.5868 0003275 330.4996  29.6013 15.67968377 17552,6742.852,91.839,366.926,362.509,0.0
55293.0,STARLINK-5287,PAYLOAD,2023-05-08 14:00:01,15.66760916,0.0003745,70.0,122.3258,270.9087,99.5971,-0.0099732,-0.00956771,0.0,0 STARLINK-5287,1 55293U 23010AA  23128.58334491 -.00956771  00000-0 -99732-2 0  9992,2 55293  70.0000 122.3258 0003745 270.9087  99.5971 15.66760916 17621,6746.316,91.909,370.708,365.655,0.0
55293.0,STARLINK-5287,PAYLOAD,2023-05-08 22:00:00,15.66090843,0.000366,70.0002,121.3942,267.0517,182.5725,-0.0097256,-0.00912233,0.0,0 STARLINK-5287,1 55293U 23010AA  23128.91667824 -.00912233  00000-0 -97256-2 0  9992,2 55293  70.0002 121.3942 0003660 267.0517 182.5725 15.66090843  1306,6748.24,91.949,372.575,367.635,0.0
55293.0,STARLINK-5287,PAYLOAD,2023-05-09 14:00:01,15.64814102,0.0003492,70.0004,119.532,272.5824,332.9248,-0.011038,-0.00976928,0.0,0 STARLINK-5287,1 55293U 23010AA  23129.58334491 -.00976928  00000-0 -11038-1 0  9991,2 55293  70.0004 119.5320 0003492 272.5824 332.9248 15.64814102  1303,6751.91,92.024,376.133,371.418,0.0
55293.0,STARLINK-5287,PAYLOAD,2023-05-10 14:00:01,15.62849933,0.0003403,70.0005,116.7463,272.953,200.5212,-0.011773,-0.00965166,0.0,0 STARLINK-5287,1 55293U 23010AA  23130.58334491 -.00965166  00000-0 -11773-1 0  9991,2 55293  70.0005 116.7463 0003403 272.9530 200.5212 15.62849933  1300,6757.566,92.139,381.731,377.132,0.0
55293.0,STARLINK-5287,PAYLOAD,2023-05-10 22:00:00,15.6218865,0.0003292,70.0008,115.8196,264.0685,283.8256,-0.011595,-0.00929703,0.0,0 STARLINK-5287,1 55293U 23010AA  23130.91667824 -.00929703  00000-0 -11595-1 0  9996,2 55293  70.0008 115.8196 0003292 264.0685 283.8256 15.62188650 17991,6759.473,92.178,383.564,379.113,0.0
55293.0,STARLINK-5287,PAYLOAD,2023-05-11 14:00:01,15.60880715,0.0003323,70.0007,113.9685,269.5116,64.891,-0.012446,-0.00946804,0.0,0 STARLINK-5287,1 55293U 23010AA  23131.58334491 -.00946804  00000-0 -12446-1 0  9998,2 55293  70.0007 113.9685 0003323 269.5116  64.8910 15.60880715  1307,6763.249,92.256,387.361,382.866,0.0
